IRIDIUM 33 DEB          
1 33960U 97051BV  26064.54851242  .00029604  00000+0  30539-2 0  9994
2 33960  86.2488 250.3073 0002429 120.2291 311.0523 14.90066399900981
IRIDIUM 33 DEB          
1 33966U 97051CB  26064.59015338  .00003399  00000+0  87267-3 0  9997
2 33966  86.3969  10.4561 0005403 299.8419 187.0869 14.50022516896425
IRIDIUM 33 DEB          
1 34071U 97051CE  26064.76469288  .00003385  00000+0  86961-3 0  9996
2 34071  86.3501 341.7429 0006769 174.3206 185.8077 14.49980060895370
IRIDIUM 33 DEB          
1 34077U 97051CL  26064.25837796  .00010352  00000+0  18611-2 0  9997
2 34077  86.3890  15.1024 0012128  97.6571  29.8878 14.66516046895417
IRIDIUM 33 DEB          
1 34079U 97051CN  26064.71230284  .00019072  00000+0  21267-2 0  9998
2 34079  86.3791 330.8389 0009605  56.6431   2.3735 14.86915407902093
IRIDIUM 33 DEB          
1 34088U 97051CX  26064.72544647  .00045374  00000+0  38520-2 0  9994
2 34088  86.3866 352.4212 0001829  68.2107 331.5175 14.97698904899812
IRIDIUM 33 DEB          
1 34091U 97051DA  26064.63188591  .00057442  00000+0  59493-2 0  9991
2 34091  86.3443  28.6500 0032838  13.2648 346.9434 14.89366348890974
IRIDIUM 33 DEB          
1 34097U 97051DG  26064.69917993  .00004651  00000+0  15470-2 0  9990
2 34097  86.2016 324.7833 0083846  89.2462 271.8341 14.35515023883091
IRIDIUM 33 DEB          
1 34145U 97051DY  26064.35285029  .00003644  00000+0  10639-2 0  9998
2 34145  86.2090 295.7187 0051934 179.5722 180.5533 14.43063420888295
IRIDIUM 33 DEB          
1 34146U 97051DZ  26064.66876647  .00003400  00000+0  87487-3 0  9991
2 34146  86.2834 313.1660 0025838 313.7440  75.3566 14.49713537893083
IRIDIUM 33 DEB          
1 34159U 97051EN  26064.78288698  .00002100  00000+0  67495-3 0  9994
2 34159  86.3548  12.8222 0029066  18.9603 341.2670 14.38740878891534
IRIDIUM 33 DEB          
1 34350U 97051ES  26064.73648227  .00001636  00000+0  45599-3 0  9994
2 34350  86.3307 326.8075 0019268 220.1336 193.9538 14.45681845894924
IRIDIUM 33 DEB          
1 34366U 97051FJ  26064.32019552  .00006744  00000+0  15596-2 0  9997
2 34366  86.3729  13.3629 0017914 219.1613 292.9042 14.54958410893827
IRIDIUM 33 DEB          
1 34375U 97051FT  26064.69090398  .00001365  00000+0  62399-3 0  9992
2 34375  86.4351 149.2898 0100944 222.4223 290.8443 14.18171083878879
IRIDIUM 33 DEB          
1 34376U 97051FU  26064.48147026  .00010359  00000+0  19450-2 0  9993
2 34376  86.2997 329.2992 0022420 250.3096 109.5697 14.64457706892175
IRIDIUM 33 DEB          
1 34486U 97051GB  26064.70937181  .00036419  00000+0  27754-2 0  9990
2 34486  86.3946 333.5610 0009121 149.6916 240.0929 15.01860332902290
