[{"OBJECT_NAME":"IRIDIUM 33 DEB","OBJECT_ID":"1997-051BV","EPOCH":"2026-03-05T13:09:51.473088","MEAN_MOTION":14.90066399,"ECCENTRICITY":0.0002429,"INCLINATION":86.2488,"RA_OF_ASC_NODE":250.3073,"ARG_OF_PERICENTER":120.2291,"MEAN_ANOMALY":311.0523,"EPHEMERIS_TYPE":0,"CLASSIFICATION_TYPE":"U","NORAD_CAT_ID":33960,"ELEMENT_SET_NO":999,"REV_AT_EPOCH":90098,"BSTAR":0.0030539,"MEAN_MOTION_DOT":0.00029604,"MEAN_MOTION_DDOT":0},{"OBJECT_NAME":"IRIDIUM 33 DEB","OBJECT_ID":"1997-051CB","EPOCH":"2026-03-05T14:09:49.252032","MEAN_MOTION":14.50022516,"ECCENTRICITY":0.0005403,"INCLINATION":86.3969,"RA_OF_ASC_NODE":10.4561,"ARG_OF_PERICENTER":299.8419,"MEAN_ANOMALY":187.0869,"EPHEMERIS_TYPE":0,"CLASSIFICATION_TYPE":"U","NORAD_CAT_ID":33966,"ELEMENT_SET_NO":999,"REV_AT_EPOCH":89642,"BSTAR":0.00087267,"MEAN_MOTION_DOT":3.399e-5,"MEAN_MOTION_DDOT":0},{"OBJECT_NAME":"IRIDIUM 33 DEB","OBJECT_ID":"1997-051CE","EPOCH":"2026-03-05T18:21:09.464832","MEAN_MOTION":14.4998006,"ECCENTRICITY":0.0006769,"INCLINATION":86.3501,"RA_OF_ASC_NODE":341.7429,"ARG_OF_PERICENTER":174.3206,"MEAN_ANOMALY":185.8077,"EPHEMERIS_TYPE":0,"CLASSIFICATION_TYPE":"U","NORAD_CAT_ID":34071,"ELEMENT_SET_NO":999,"REV_AT_EPOCH":89537,"BSTAR":0.00086961,"MEAN_MOTION_DOT":3.385e-5,"MEAN_MOTION_DDOT":0},{"OBJECT_NAME":"IRIDIUM 33 DEB","OBJECT_ID":"1997-051CL","EPOCH":"2026-03-05T06:12:03.855744","MEAN_MOTION":14.66516046,"ECCENTRICITY":0.0012128,"INCLINATION":86.389,"RA_OF_ASC_NODE":15.1024,"ARG_OF_PERICENTER":97.6571,"MEAN_ANOMALY":29.8878,"EPHEMERIS_TYPE":0,"CLASSIFICATION_TYPE":"U","NORAD_CAT_ID":34077,"ELEMENT_SET_NO":999,"REV_AT_EPOCH":89541,"BSTAR":0.0018611,"MEAN_MOTION_DOT":0.00010352,"MEAN_MOTION_DDOT":0},{"OBJECT_NAME":"IRIDIUM 33 DEB","OBJECT_ID":"1997-051CN","EPOCH":"2026-03-05T17:05:42.965376","MEAN_MOTION":14.86915407,"ECCENTRICITY":0.0009605,"INCLINATION":86.3791,"RA_OF_ASC_NODE":330.8389,"ARG_OF_PERICENTER":56.6431,"MEAN_ANOMALY":2.3735,"EPHEMERIS_TYPE":0,"CLASSIFICATION_TYPE":"U","NORAD_CAT_ID":34079,"ELEMENT_SET_NO":999,"REV_AT_EPOCH":90209,"BSTAR":0.0021267,"MEAN_MOTION_DOT":0.00019072,"MEAN_MOTION_DDOT":0},{"OBJECT_NAME":"IRIDIUM 33 DEB","OBJECT_ID":"1997-051CX","EPOCH":"2026-03-05T17:24:38.575008","MEAN_MOTION":14.97698904,"ECCENTRICITY":0.0001829,"INCLINATION":86.3866,"RA_OF_ASC_NODE":352.4212,"ARG_OF_PERICENTER":68.2107,"MEAN_ANOMALY":331.5175,"EPHEMERIS_TYPE":0,"CLASSIFICATION_TYPE":"U","NORAD_CAT_ID":34088,"ELEMENT_SET_NO":999,"REV_AT_EPOCH":89981,"BSTAR":0.003852,"MEAN_MOTION_DOT":0.00045374,"MEAN_MOTION_DDOT":0},{"OBJECT_NAME":"IRIDIUM 33 DEB","OBJECT_ID":"1997-051DA","EPOCH":"2026-03-05T15:09:54.942624","MEAN_MOTION":14.89366348,"ECCENTRICITY":0.0032838,"INCLINATION":86.3443,"RA_OF_ASC_NODE":28.65,"ARG_OF_PERICENTER":13.2648,"MEAN_ANOMALY":346.9434,"EPHEMERIS_TYPE":0,"CLASSIFICATION_TYPE":"U","NORAD_CAT_ID":34091,"ELEMENT_SET_NO":999,"REV_AT_EPOCH":89097,"BSTAR":0.0059493,"MEAN_MOTION_DOT":0.00057442,"MEAN_MOTION_DDOT":0},{"OBJECT_NAME":"IRIDIUM 33 DEB","OBJECT_ID":"1997-051DG","EPOCH":"2026-03-05T16:46:49.145952","MEAN_MOTION":14.35515023,"ECCENTRICITY":0.0083846,"INCLINATION":86.2016,"RA_OF_ASC_NODE":324.7833,"ARG_OF_PERICENTER":89.2462,"MEAN_ANOMALY":271.8341,"EPHEMERIS_TYPE":0,"CLASSIFICATION_TYPE":"U","NORAD_CAT_ID":34097,"ELEMENT_SET_NO":999,"REV_AT_EPOCH":88309,"BSTAR":0.001547,"MEAN_MOTION_DOT":4.651e-5,"MEAN_MOTION_DDOT":0},{"OBJECT_NAME":"IRIDIUM 33 DEB","OBJECT_ID":"1997-051DY","EPOCH":"2026-03-05T08:28:06.265056","MEAN_MOTION":14.4306342,"ECCENTRICITY":0.0051934,"INCLINATION":86.209,"RA_OF_ASC_NODE":295.7187,"ARG_OF_PERICENTER":179.5722,"MEAN_ANOMALY":180.5533,"EPHEMERIS_TYPE":0,"CLASSIFICATION_TYPE":"U","NORAD_CAT_ID":34145,"ELEMENT_SET_NO":999,"REV_AT_EPOCH":88829,"BSTAR":0.0010639,"MEAN_MOTION_DOT":3.644e-5,"MEAN_MOTION_DDOT":0},{"OBJECT_NAME":"IRIDIUM 33 DEB","OBJECT_ID":"1997-051DZ","EPOCH":"2026-03-05T16:03:01.423008","MEAN_MOTION":14.49713537,"ECCENTRICITY":0.0025838,"INCLINATION":86.2834,"RA_OF_ASC_NODE":313.166,"ARG_OF_PERICENTER":313.744,"MEAN_ANOMALY":75.3566,"EPHEMERIS_TYPE":0,"CLASSIFICATION_TYPE":"U","NORAD_CAT_ID":34146,"ELEMENT_SET_NO":999,"REV_AT_EPOCH":89308,"BSTAR":0.00087487,"MEAN_MOTION_DOT":3.4e-5,"MEAN_MOTION_DDOT":0},{"OBJECT_NAME":"IRIDIUM 33 DEB","OBJECT_ID":"1997-051EN","EPOCH":"2026-03-05T18:47:21.435072","MEAN_MOTION":14.38740878,"ECCENTRICITY":0.0029066,"INCLINATION":86.3548,"RA_OF_ASC_NODE":12.8222,"ARG_OF_PERICENTER":18.9603,"MEAN_ANOMALY":341.267,"EPHEMERIS_TYPE":0,"CLASSIFICATION_TYPE":"U","NORAD_CAT_ID":34159,"ELEMENT_SET_NO":999,"REV_AT_EPOCH":89153,"BSTAR":0.00067495,"MEAN_MOTION_DOT":2.1e-5,"MEAN_MOTION_DDOT":0},{"OBJECT_NAME":"IRIDIUM 33 DEB","OBJECT_ID":"1997-051ES","EPOCH":"2026-03-05T17:40:32.068128","MEAN_MOTION":14.45681845,"ECCENTRICITY":0.0019268,"INCLINATION":86.3307,"RA_OF_ASC_NODE":326.8075,"ARG_OF_PERICENTER":220.1336,"MEAN_ANOMALY":193.9538,"EPHEMERIS_TYPE":0,"CLASSIFICATION_TYPE":"U","NORAD_CAT_ID":34350,"ELEMENT_SET_NO":999,"REV_AT_EPOCH":89492,"BSTAR":0.00045599,"MEAN_MOTION_DOT":1.636e-5,"MEAN_MOTION_DDOT":0},{"OBJECT_NAME":"IRIDIUM 33 DEB","OBJECT_ID":"1997-051FJ","EPOCH":"2026-03-05T07:41:04.892928","MEAN_MOTION":14.5495841,"ECCENTRICITY":0.0017914,"INCLINATION":86.3729,"RA_OF_ASC_NODE":13.3629,"ARG_OF_PERICENTER":219.1613,"MEAN_ANOMALY":292.9042,"EPHEMERIS_TYPE":0,"CLASSIFICATION_TYPE":"U","NORAD_CAT_ID":34366,"ELEMENT_SET_NO":999,"REV_AT_EPOCH":89382,"BSTAR":0.0015596,"MEAN_MOTION_DOT":6.744e-5,"MEAN_MOTION_DDOT":0},{"OBJECT_NAME":"IRIDIUM 33 DEB","OBJECT_ID":"1997-051FT","EPOCH":"2026-03-05T16:34:54.103872","MEAN_MOTION":14.18171083,"ECCENTRICITY":0.0100944,"INCLINATION":86.4351,"RA_OF_ASC_NODE":149.2898,"ARG_OF_PERICENTER":222.4223,"MEAN_ANOMALY":290.8443,"EPHEMERIS_TYPE":0,"CLASSIFICATION_TYPE":"U","NORAD_CAT_ID":34375,"ELEMENT_SET_NO":999,"REV_AT_EPOCH":87887,"BSTAR":0.00062399,"MEAN_MOTION_DOT":1.365e-5,"MEAN_MOTION_DDOT":0},{"OBJECT_NAME":"IRIDIUM 33 DEB","OBJECT_ID":"1997-051FU","EPOCH":"2026-03-05T11:33:19.030464","MEAN_MOTION":14.64457706,"ECCENTRICITY":0.002242,"INCLINATION":86.2997,"RA_OF_ASC_NODE":329.2992,"ARG_OF_PERICENTER":250.3096,"MEAN_ANOMALY":109.5697,"EPHEMERIS_TYPE":0,"CLASSIFICATION_TYPE":"U","NORAD_CAT_ID":34376,"ELEMENT_SET_NO":999,"REV_AT_EPOCH":89217,"BSTAR":0.001945,"MEAN_MOTION_DOT":0.00010359,"MEAN_MOTION_DDOT":0},{"OBJECT_NAME":"IRIDIUM 33 DEB","OBJECT_ID":"1997-051GB","EPOCH":"2026-03-05T17:01:29.724384","MEAN_MOTION":15.01860332,"ECCENTRICITY":0.0009121,"INCLINATION":86.3946,"RA_OF_ASC_NODE":333.561,"ARG_OF_PERICENTER":149.6916,"MEAN_ANOMALY":240.0929,"EPHEMERIS_TYPE":0,"CLASSIFICATION_TYPE":"U","NORAD_CAT_ID":34486,"ELEMENT_SET_NO":999,"REV_AT_EPOCH":90229,"BSTAR":0.0027754,"MEAN_MOTION_DOT":0.00036419,"MEAN_MOTION_DDOT":0}]
